STARLINK-2613           
1 48353U 21038A   22286.65924492  .00003414  00000+0  24802-3 0  9998
2 48353  53.0543 181.8048 0001184 112.8952 247.2162 15.06393978 80268
STARLINK-2674           
1 48354U 21038B   22286.98729433  .00002138  00000+0  16240-3 0  9992
2 48354  53.0536 180.3363 0001301 112.4488 247.6639 15.06394988 80317
STARLINK-2635           
1 48355U 21038C   22287.11629822  .00000751  00000+0  69272-4 0  9993
2 48355  53.0548 179.7565 0001344  86.3016 273.8127 15.06404633 80334
STARLINK-2637           
1 48356U 21038D   22287.11261919  .00002774  00000+0  20503-3 0  9993
2 48356  53.0525 179.7536 0001482 101.9685 258.1470 15.06401245 80329
STARLINK-2636           
1 48357U 21038E   22286.44820930  .00004643  00000+0  33049-3 0  9999
2 48357  53.0534 182.7837 0001369 119.5187 240.5939 15.06390286 79644
STARLINK-2624           
1 48358U 21038F   22286.97255895  .00003090  00000+0  22633-3 0  9992
2 48358  53.0555 180.3954 0001499  97.8870 262.2289 15.06387600 80303
STARLINK-2628           
1 48359U 21038G   22286.83619287  .00000180  00000+0  31013-4 0  9997
2 48359  53.0554 181.0142 0001486 108.3129 251.8021 15.06380871 79692
STARLINK-2622           
1 48360U 21038H   22287.09788109  .00005776  00000+0  40630-3 0  9998
2 48360  53.0534 179.8417 0001373 114.0972 246.0161 15.06400940 80320
STARLINK-2591           
1 48361U 21038J   22286.43073173  .00007477  00000+0  52026-3 0  9996
2 48361  53.0552 182.8356 0001455 118.3248 241.7888 15.06403576 79639
STARLINK-2578           
1 48362U 21038K   22286.13216053  .00002887  00000+0  21258-3 0  9993
2 48362  53.0543 184.2442 0001351 105.0697 255.0442 15.06403490 79592
STARLINK-2626           
1 48363U 21038L   22287.07068944  .00002982  00000+0  21903-3 0  9995
2 48363  53.0550 174.9631 0001281 121.5576 238.5538 15.06395766 80396
STARLINK-2611           
1 48364U 21038M   22287.01912118  .00003238  00000+0  23624-3 0  9998
2 48364  53.0554 175.3909 0001506 104.2505 255.8651 15.06389806 80389
STARLINK-2608           
1 48365U 21038N   22287.11124386  .00001301  00000+0  10625-3 0  9998
2 48365  53.0540 174.7707 0001390 122.4538 237.6585 15.06386250 80400
STARLINK-2631           
1 48366U 21038P   22286.96610712  .00005844  00000+0  41082-3 0  9991
2 48366  53.0534 170.4365 0001515 120.2813 239.8326 15.06406720 80444
STARLINK-2643           
1 48367U 21038Q   22287.16145293  .00007648  00000+0  53158-3 0  9993
2 48367  53.0530 169.5521 0001414 115.5443 244.5692 15.06414984 80471
STARLINK-2623           
1 48368U 21038R   22286.80764155  .00004444  00000+0  31713-3 0  9992
2 48368  53.0538 171.4202 0001304  99.7421 260.3716 15.06392765 79838
STARLINK-2641           
1 48369U 21038S   22286.42795206  .00002729  00000+0  20206-3 0  9991
2 48369  53.0537 172.8465 0001194  98.4040 261.7084 15.06395424 79775
STARLINK-2621           
1 48370U 21038T   22286.62330093  .00001387  00000+0  11201-3 0  9998
2 48370  53.0545 171.9666 0001327 119.3488 240.7633 15.06396516 79800
STARLINK-2589           
1 48371U 21038U   22287.08404422  .00003548  00000+0  25695-3 0  9991
2 48371  53.0525 169.9024 0001225 119.5706 240.5406 15.06404585 80462
STARLINK-2572           
1 48372U 21038V   22287.08036297  .00002922  00000+0  21496-3 0  9993
2 48372  53.0534 169.9184 0001140 105.4733 254.6382 15.06396424 80461
STARLINK-2609           
1 48373U 21038W   22286.94398549  .00002255  00000+0  17021-3 0  9997
2 48373  53.0539 170.5193 0001386 116.4032 243.7099 15.06398035 80443
STARLINK-2604           
1 48374U 21038X   22287.07204707  .00004927  00000+0  34941-3 0  9993
2 48374  53.0549 169.9402 0001469 108.6641 251.4508 15.06400138 80462
STARLINK-2603           
1 48375U 21038Y   22286.80391391  .00001888  00000+0  14560-3 0  9998
2 48375  53.0541 171.1531 0001484  95.2491 264.8667 15.06394508 79830
STARLINK-2610           
1 48376U 21038Z   22286.40215980  .00000282  00000+0  37820-4 0  9996
2 48376  53.0540 172.9631 0001625 106.9389 253.1778 15.06383262 79775
STARLINK-2499           
1 48377U 21038AA  22286.79654983  .00004450  00000+0  31744-3 0  9998
2 48377  53.0528 171.1788 0001436 103.8347 256.2802 15.06399579 79833
STARLINK-2526           
1 48378U 21038AB  22287.05825274  .00004067  00000+0  29177-3 0  9993
2 48378  53.0538 170.0205 0001294 108.8532 251.2598 15.06399243 80466
STARLINK-2612           
1 48379U 21038AC  22286.65648947  .00000202  00000+0  32436-4 0  9999
2 48379  53.0546 171.8156 0001065 123.0638 237.0454 15.06386404 79817
STARLINK-2614           
1 48380U 21038AD  22286.81402702  .00001417  00000+0  11399-3 0  9999
2 48380  53.0558 171.1055 0001460 129.9651 230.1467 15.06397551 79837
STARLINK-2630           
1 48381U 21038AE  22286.98454000  .00008397  00000+0  58212-3 0  9995
2 48381  53.0550 170.3461 0001530 112.8363 247.2787 15.06386415 80452
STARLINK-2585           
1 48382U 21038AF  22287.11354343  .00001616  00000+0  12734-3 0  9997
2 48382  53.0526 169.7689 0001202  99.2381 260.8744 15.06396106 80478
STARLINK-2599           
1 48383U 21038AG  22287.04350958  .00001235  00000+0  10183-3 0  9991
2 48383  53.0539 170.0865 0001263  94.4591 265.6542 15.06382292 80459
STARLINK-2601           
1 48384U 21038AH  22286.11095954  .00002207  00000+0  16700-3 0  9992
2 48384  53.0550 174.2712 0001389  94.6559 265.4589 15.06394814 80952
STARLINK-2598           
1 48385U 21038AJ  22286.10727445  .00000921  00000+0  80714-4 0  9997
2 48385  53.0545 174.2862 0001452 104.6433 255.4717 15.06393065 80956
STARLINK-2606           
1 48386U 21038AK  22286.95734615  .00003728  00000+0  26901-3 0  9993
2 48386  53.0544 165.4830 0001265 105.4005 254.7124 15.06403715 80519
STARLINK-2600           
1 48387U 21038AL  22287.05318945  .00002160  00000+0  16390-3 0  9990
2 48387  53.0553 165.0134 0001220  96.2888 263.8240 15.06389494 80539
STARLINK-2594           
1 48388U 21038AM  22286.78411510  .00005050  00000+0  35765-3 0  9990
2 48388  53.0528 166.2466 0001452 111.2024 248.9120 15.06399225 79903
STARLINK-1904           
1 48389U 21038AN  22286.83706340 -.00000073  00000+0  14009-4 0  9995
2 48389  53.0551 161.0034 0001279 119.8595 240.2521 15.06395956 79972
STARLINK-2586           
1 48390U 21038AP  22286.83433220  .00002912  00000+0  21433-3 0  9992
2 48390  53.0539 161.0211 0001369 102.1285 257.9857 15.06394098 81198
STARLINK-2607           
1 48391U 21038AQ  22287.02969004  .00002235  00000+0  16895-3 0  9993
2 48391  53.0558 160.1499 0001291  83.3407 276.7729 15.06387176 80586
STARLINK-2605           
1 48392U 21038AR  22287.02599471  .00003350  00000+0  24370-3 0  9997
2 48392  53.0530 160.1602 0001314 111.5195 248.5934 15.06399215 80590
STARLINK-2602           
1 48393U 21038AS  22287.15500677  .00003554  00000+0  25740-3 0  9990
2 48393  53.0546 159.5738 0001392  85.4424 274.6724 15.06393868 80618
STARLINK-2573           
1 48394U 21038AT  22286.75324477  .00004958  00000+0  35149-3 0  9991
2 48394  53.0510 161.3879 0001516  87.3144 272.8018 15.06399088 81184
STARLINK-2574           
1 48395U 21038AU  22287.12928076  .00010399  00000+0  71570-3 0  9993
2 48395  53.0515 160.3241 0001341 119.5298 240.5825 15.06412947 80600
STARLINK-2575           
1 48396U 21038AV  22287.01494853  .00006456  00000+0  45189-3 0  9999
2 48396  53.0508 160.2168 0001846  95.7901 264.3299 15.06399289 80596
STARLINK-2590           
1 48397U 21038AW  22286.81220969  .00002518  00000+0  18790-3 0  9995
2 48397  53.0542 161.1218 0001578 147.6328 212.4758 15.06393843 81194
STARLINK-2588           
1 48398U 21038AX  22287.07391222  .00003988  00000+0  28643-3 0  9996
2 48398  53.0536 159.9418 0001372  99.6925 260.4219 15.06401378 80609
STARLINK-2587           
1 48399U 21038AY  22287.07022139  .00002344  00000+0  17617-3 0  9999
2 48399  53.0540 159.9555 0001275 104.1905 255.9226 15.06398888 80607
STARLINK-2576           
1 48400U 21038AZ  22286.86749274 -.00010072  00000+0 -65748-3 0  9991
2 48400  53.0526 160.8790 0001190  48.2841 311.8249 15.06443070 80576
STARLINK-2571           
1 48401U 21038BA  22287.03706212  .00004146  00000+0  29703-3 0  9991
2 48401  53.0535 160.1224 0001468  94.2311 265.8845 15.06401078 80597
STARLINK-2560           
1 48402U 21038BB  22287.06190352  .00001671  00000+0  13108-3 0  9999
2 48402  53.0553 159.9948 0001434  85.9828 274.1325 15.06398230 80603
STARLINK-2561           
1 48403U 21038BC  22286.79378621  .00009673  00000+0  66737-3 0  9992
2 48403  53.0509 161.2026 0001260 101.5777 258.5354 15.06401735 79974
STARLINK-2593           
1 48404U 21038BD  22286.72375002  .00002806  00000+0  20727-3 0  9996
2 48404  53.0536 161.5218 0001363 112.6523 247.4610 15.06391811 79961
STARLINK-2570           
1 48405U 21038BE  22286.78641545  .00001935  00000+0  14878-3 0  9993
2 48405  53.0548 161.2193 0001222  70.6781 289.4340 15.06396915 79974
STARLINK-2568           
1 48406U 21038BF  22286.91542654  .00000264  00000+0  36651-4 0  9998
2 48406  53.0556 160.6627 0001271 106.6193 253.4936 15.06395196 79994
STARLINK-2595           
1 48407U 21038BG  22287.04442628  .00000456  00000+0  49537-4 0  9994
2 48407  53.0550 160.0642 0001162  92.1687 267.9435 15.06395475 80598
STARLINK-2592           
1 48408U 21038BH  22286.90805073  .00002241  00000+0  16928-3 0  9997
2 48408  53.0545 160.6960 0001432 128.7458 231.3659 15.06396868 80572
STARLINK-2596           
1 48409U 21038BJ  22287.06424391  .00002164  00000+0  16420-3 0  9997
2 48409  53.0541 164.9952 0001444  88.6690 271.4464 15.06388736 80532
STARLINK-2563           
1 48410U 21038BK  22286.80344111 -.00004249  00000+0 -26632-3 0  9995
2 48410  53.0531 116.1607 0001463  95.7924 264.3232 15.06425935 80615
STARLINK-2505           
1 48411U 21038BL  22286.82049948  .00001494  00000+0  11914-3 0  9992
2 48411  53.0548 111.0845 0001061 106.4133 253.6973 15.06396972 80686
STARLINK-2581           
1 48412U 21038BM  22286.77264395  .00007614  00000+0  52937-3 0  9992
2 48412  53.0531 111.7296 0001426 121.6000 238.5128 15.06407703 80671
